STARLINK-36909          
1 67946U 26037Q   26072.73523965  .00233029  00000+0  10754-2 0  9994
2 67946  42.9981 173.6342 0001673 276.7444  83.3237 15.82099779  3897
STARLINK-36920          
1 67947U 26037R   26072.73449006  .00239697  00000+0  11047-2 0  9991
2 67947  42.9981 173.6278 0001748 279.9265  80.1409 15.82110256  3895
STARLINK-36873          
1 67948U 26037S   26072.67060631  .00297088  00000+0  13589-2 0  9999
2 67948  42.9980 174.0083 0001858 265.1031  94.9629 15.82119951  3881
STARLINK-36863          
1 67949U 26037T   26072.73299298  .00237935  00000+0  10977-2 0  9993
2 67949  42.9983 173.6154 0001355 267.8072  92.2645 15.82094711  3891
STARLINK-36887          
1 67950U 26037U   26072.66910874  .00288230  00000+0  13195-2 0  9996
2 67950  42.9981 173.9960 0001526 281.5122  78.5579 15.82125043  3883
STARLINK-36897          
1 67951U 26037V   26072.73148956  .00206881  00000+0  95803-3 0  9998
2 67951  42.9988 173.6029 0001838 255.5366 104.5302 15.82098128  3899
STARLINK-36381          
1 67952U 26037W   26072.72999529  .00231748  00000+0  10697-2 0  9995
2 67952  42.9987 173.5905 0001729 291.3883  68.6804 15.82099651  3891
STARLINK-36824          
1 67953U 26037X   26072.73074221  .00354937  00000+0  16097-2 0  9996
2 67953  42.9982 173.5968 0001796 257.0377 103.0294 15.82152531  3891
STARLINK-36869          
1 67954U 26037Y   26072.72923616  .00272663  00000+0  12503-2 0  9990
2 67954  42.9984 173.5836 0002253 266.2770  93.7844 15.82130344  3890
STARLINK-36872          
1 67955U 26037Z   26072.72774623  .00253947  00000+0  11689-2 0  9991
2 67955  42.9986 173.5707 0001799 267.3711  92.6955 15.82100578  3898
STARLINK-36918          
1 67956U 26037AA  26072.72699732  .00231830  00000+0  10699-2 0  9996
2 67956  42.9985 173.5651 0001499 278.1110  81.9592 15.82103710  3895
STARLINK-36829          
1 67957U 26037AB  26072.72849628  .00212999  00000+0  98552-3 0  9998
2 67957  42.9987 173.5776 0001396 271.3183  88.7529 15.82099793  3897
STARLINK-36799          
1 67958U 26037AC  26072.72624710  .00185328  00000+0  86135-3 0  9991
2 67958  42.9982 173.5589 0001581 257.5210 102.5485 15.82080592  3891
STARLINK-36834          
1 67959U 26037AD  26072.72475083  .00239274  00000+0  11040-2 0  9991
2 67959  42.9988 173.5461 0001796 246.7396 113.3287 15.82088912  3894
STARLINK-36841          
1 67960U 26037AE  26072.72549814  .00298650  00000+0  13656-2 0  9995
2 67960  42.9987 173.5523 0001863 248.5040 111.5633 15.82122890  3894
STARLINK-36912          
1 67961U 26038A   26072.91668981 -.00036236  00000+0 -24318-3 0  9995
2 67961  97.2837  83.4306 0000782 101.3203 203.5933 15.75183194  3875
