[{"OBJECT_NAME":"STARLINK-36909","OBJECT_ID":"2026-037Q","EPOCH":"2026-03-13T17:38:44.705760","MEAN_MOTION":15.82099779,"ECCENTRICITY":0.00016732,"INCLINATION":42.9981,"RA_OF_ASC_NODE":173.6342,"ARG_OF_PERICENTER":276.7444,"MEAN_ANOMALY":83.3237,"EPHEMERIS_TYPE":0,"CLASSIFICATION_TYPE":"U","NORAD_CAT_ID":67946,"ELEMENT_SET_NO":999,"REV_AT_EPOCH":389,"BSTAR":0.0010754491,"MEAN_MOTION_DOT":0.00233029,"MEAN_MOTION_DDOT":0},{"OBJECT_NAME":"STARLINK-36920","OBJECT_ID":"2026-037R","EPOCH":"2026-03-13T17:37:39.941184","MEAN_MOTION":15.82110256,"ECCENTRICITY":0.00017486,"INCLINATION":42.9981,"RA_OF_ASC_NODE":173.6278,"ARG_OF_PERICENTER":279.9265,"MEAN_ANOMALY":80.1409,"EPHEMERIS_TYPE":0,"CLASSIFICATION_TYPE":"U","NORAD_CAT_ID":67947,"ELEMENT_SET_NO":999,"REV_AT_EPOCH":389,"BSTAR":0.0011047498,"MEAN_MOTION_DOT":0.00239697,"MEAN_MOTION_DDOT":0},{"OBJECT_NAME":"STARLINK-36873","OBJECT_ID":"2026-037S","EPOCH":"2026-03-13T16:05:40.385184","MEAN_MOTION":15.82119951,"ECCENTRICITY":0.00018582,"INCLINATION":42.998,"RA_OF_ASC_NODE":174.0083,"ARG_OF_PERICENTER":265.1031,"MEAN_ANOMALY":94.9629,"EPHEMERIS_TYPE":0,"CLASSIFICATION_TYPE":"U","NORAD_CAT_ID":67948,"ELEMENT_SET_NO":999,"REV_AT_EPOCH":388,"BSTAR":0.0013589287,"MEAN_MOTION_DOT":0.00297088,"MEAN_MOTION_DDOT":0},{"OBJECT_NAME":"STARLINK-36863","OBJECT_ID":"2026-037T","EPOCH":"2026-03-13T17:35:30.593472","MEAN_MOTION":15.82094711,"ECCENTRICITY":0.00013551,"INCLINATION":42.9983,"RA_OF_ASC_NODE":173.6154,"ARG_OF_PERICENTER":267.8072,"MEAN_ANOMALY":92.2645,"EPHEMERIS_TYPE":0,"CLASSIFICATION_TYPE":"U","NORAD_CAT_ID":67949,"ELEMENT_SET_NO":999,"REV_AT_EPOCH":389,"BSTAR":0.0010976782,"MEAN_MOTION_DOT":0.00237935,"MEAN_MOTION_DDOT":0},{"OBJECT_NAME":"STARLINK-36887","OBJECT_ID":"2026-037U","EPOCH":"2026-03-13T16:03:30.995136","MEAN_MOTION":15.82125043,"ECCENTRICITY":0.00015266,"INCLINATION":42.9981,"RA_OF_ASC_NODE":173.996,"ARG_OF_PERICENTER":281.5122,"MEAN_ANOMALY":78.5579,"EPHEMERIS_TYPE":0,"CLASSIFICATION_TYPE":"U","NORAD_CAT_ID":67950,"ELEMENT_SET_NO":999,"REV_AT_EPOCH":388,"BSTAR":0.0013195396,"MEAN_MOTION_DOT":0.0028823,"MEAN_MOTION_DDOT":0},{"OBJECT_NAME":"STARLINK-36897","OBJECT_ID":"2026-037V","EPOCH":"2026-03-13T17:33:20.697984","MEAN_MOTION":15.82098128,"ECCENTRICITY":0.00018388,"INCLINATION":42.9988,"RA_OF_ASC_NODE":173.6029,"ARG_OF_PERICENTER":255.5366,"MEAN_ANOMALY":104.5302,"EPHEMERIS_TYPE":0,"CLASSIFICATION_TYPE":"U","NORAD_CAT_ID":67951,"ELEMENT_SET_NO":999,"REV_AT_EPOCH":389,"BSTAR":0.00095802742,"MEAN_MOTION_DOT":0.00206881,"MEAN_MOTION_DDOT":0},{"OBJECT_NAME":"STARLINK-36381","OBJECT_ID":"2026-037W","EPOCH":"2026-03-13T17:31:11.593056","MEAN_MOTION":15.82099651,"ECCENTRICITY":0.00017299,"INCLINATION":42.9987,"RA_OF_ASC_NODE":173.5905,"ARG_OF_PERICENTER":291.3883,"MEAN_ANOMALY":68.6804,"EPHEMERIS_TYPE":0,"CLASSIFICATION_TYPE":"U","NORAD_CAT_ID":67952,"ELEMENT_SET_NO":999,"REV_AT_EPOCH":389,"BSTAR":0.0010697165,"MEAN_MOTION_DOT":0.00231748,"MEAN_MOTION_DDOT":0},{"OBJECT_NAME":"STARLINK-36824","OBJECT_ID":"2026-037X","EPOCH":"2026-03-13T17:32:16.126944","MEAN_MOTION":15.82152531,"ECCENTRICITY":0.00017963,"INCLINATION":42.9982,"RA_OF_ASC_NODE":173.5968,"ARG_OF_PERICENTER":257.0377,"MEAN_ANOMALY":103.0294,"EPHEMERIS_TYPE":0,"CLASSIFICATION_TYPE":"U","NORAD_CAT_ID":67953,"ELEMENT_SET_NO":999,"REV_AT_EPOCH":389,"BSTAR":0.0016096874,"MEAN_MOTION_DOT":0.00354937,"MEAN_MOTION_DDOT":0},{"OBJECT_NAME":"STARLINK-36869","OBJECT_ID":"2026-037Y","EPOCH":"2026-03-13T17:30:06.004224","MEAN_MOTION":15.82130344,"ECCENTRICITY":0.00022539,"INCLINATION":42.9984,"RA_OF_ASC_NODE":173.5836,"ARG_OF_PERICENTER":266.277,"MEAN_ANOMALY":93.7844,"EPHEMERIS_TYPE":0,"CLASSIFICATION_TYPE":"U","NORAD_CAT_ID":67954,"ELEMENT_SET_NO":999,"REV_AT_EPOCH":389,"BSTAR":0.0012503337,"MEAN_MOTION_DOT":0.00272663,"MEAN_MOTION_DDOT":0},{"OBJECT_NAME":"STARLINK-36872","OBJECT_ID":"2026-037Z","EPOCH":"2026-03-13T17:27:57.274272","MEAN_MOTION":15.82100578,"ECCENTRICITY":0.00017999,"INCLINATION":42.9986,"RA_OF_ASC_NODE":173.5707,"ARG_OF_PERICENTER":267.3711,"MEAN_ANOMALY":92.6955,"EPHEMERIS_TYPE":0,"CLASSIFICATION_TYPE":"U","NORAD_CAT_ID":67955,"ELEMENT_SET_NO":999,"REV_AT_EPOCH":389,"BSTAR":0.001168866,"MEAN_MOTION_DOT":0.00253947,"MEAN_MOTION_DDOT":0},{"OBJECT_NAME":"STARLINK-36918","OBJECT_ID":"2026-037AA","EPOCH":"2026-03-13T17:26:52.568448","MEAN_MOTION":15.8210371,"ECCENTRICITY":0.00014993,"INCLINATION":42.9985,"RA_OF_ASC_NODE":173.5651,"ARG_OF_PERICENTER":278.111,"MEAN_ANOMALY":81.9592,"EPHEMERIS_TYPE":0,"CLASSIFICATION_TYPE":"U","NORAD_CAT_ID":67956,"ELEMENT_SET_NO":999,"REV_AT_EPOCH":389,"BSTAR":0.0010698888,"MEAN_MOTION_DOT":0.0023183,"MEAN_MOTION_DDOT":0},{"OBJECT_NAME":"STARLINK-36829","OBJECT_ID":"2026-037AB","EPOCH":"2026-03-13T17:29:02.078592","MEAN_MOTION":15.82099793,"ECCENTRICITY":0.00013962,"INCLINATION":42.9987,"RA_OF_ASC_NODE":173.5776,"ARG_OF_PERICENTER":271.3183,"MEAN_ANOMALY":88.7529,"EPHEMERIS_TYPE":0,"CLASSIFICATION_TYPE":"U","NORAD_CAT_ID":67957,"ELEMENT_SET_NO":999,"REV_AT_EPOCH":389,"BSTAR":0.00098552204,"MEAN_MOTION_DOT":0.00212999,"MEAN_MOTION_DDOT":0},{"OBJECT_NAME":"STARLINK-36799","OBJECT_ID":"2026-037AC","EPOCH":"2026-03-13T17:25:47.749440","MEAN_MOTION":15.82080592,"ECCENTRICITY":0.00015813,"INCLINATION":42.9982,"RA_OF_ASC_NODE":173.5589,"ARG_OF_PERICENTER":257.521,"MEAN_ANOMALY":102.5485,"EPHEMERIS_TYPE":0,"CLASSIFICATION_TYPE":"U","NORAD_CAT_ID":67958,"ELEMENT_SET_NO":999,"REV_AT_EPOCH":389,"BSTAR":0.00086134791,"MEAN_MOTION_DOT":0.00185328,"MEAN_MOTION_DDOT":0},{"OBJECT_NAME":"STARLINK-36834","OBJECT_ID":"2026-037AD","EPOCH":"2026-03-13T17:23:38.471712","MEAN_MOTION":15.82088912,"ECCENTRICITY":0.00017964,"INCLINATION":42.9988,"RA_OF_ASC_NODE":173.5461,"ARG_OF_PERICENTER":246.7396,"MEAN_ANOMALY":113.3287,"EPHEMERIS_TYPE":0,"CLASSIFICATION_TYPE":"U","NORAD_CAT_ID":67959,"ELEMENT_SET_NO":999,"REV_AT_EPOCH":389,"BSTAR":0.0011039586,"MEAN_MOTION_DOT":0.00239274,"MEAN_MOTION_DDOT":0},{"OBJECT_NAME":"STARLINK-36841","OBJECT_ID":"2026-037AE","EPOCH":"2026-03-13T17:24:43.039296","MEAN_MOTION":15.8212289,"ECCENTRICITY":0.00018634,"INCLINATION":42.9987,"RA_OF_ASC_NODE":173.5523,"ARG_OF_PERICENTER":248.504,"MEAN_ANOMALY":111.5633,"EPHEMERIS_TYPE":0,"CLASSIFICATION_TYPE":"U","NORAD_CAT_ID":67960,"ELEMENT_SET_NO":999,"REV_AT_EPOCH":389,"BSTAR":0.0013656279,"MEAN_MOTION_DOT":0.0029865,"MEAN_MOTION_DDOT":0},{"OBJECT_NAME":"STARLINK-36912","OBJECT_ID":"2026-038A","EPOCH":"2026-03-13T22:00:01.999584","MEAN_MOTION":15.75183194,"ECCENTRICITY":7.827e-5,"INCLINATION":97.2837,"RA_OF_ASC_NODE":83.4306,"ARG_OF_PERICENTER":101.3203,"MEAN_ANOMALY":203.5933,"EPHEMERIS_TYPE":0,"CLASSIFICATION_TYPE":"U","NORAD_CAT_ID":67961,"ELEMENT_SET_NO":999,"REV_AT_EPOCH":387,"BSTAR":-0.00024318216,"MEAN_MOTION_DOT":-0.00036236,"MEAN_MOTION_DDOT":0}]
